SL-14 R/B               
1 16792U 86046B   26039.23822292  .00000537  00000+0  59174-4 0  9993
2 16792  82.4816 108.0138 0022248 328.6757  31.3132 14.85561789122038
SL-14 R/B               
1 16882U 86055B   26039.43791769  .00000682  00000+0  75703-4 0  9996
2 16882  82.5234 154.1594 0020318  70.7030 356.2508 14.85611869115028
AJISAI (EGS)            
1 16908U 86061A   26039.49277786 -.00000091  00000+0  44786-4 0  9998
2 16908  50.0072 183.1276 0011240 211.8017 257.9342 12.44515305464361
COSMOS 1812             
1 17295U 87003A   26039.48886756  .00292543  31817-4  76034-3 0  9996
2 17295  82.4779 228.7371 0001126 327.2819  32.8386 15.94974206139791
SL-14 R/B               
1 17567U 87024B   26039.28236729  .00000575  00000+0  62697-4 0  9996
2 17567  82.5292 120.4026 0018223   3.1420 356.9907 14.86103830 83764
COSMOS 1833             
1 17589U 87027A   26039.41183696  .00000055  00000+0  54930-4 0  9996
2 17589  70.9213  27.5496 0024889 253.7329 106.1054 14.13056433  6181
SL-16 R/B               
1 17590U 87027B   26039.25853454 -.00000180  00000+0 -65451-4 0  9997
2 17590  71.0050 338.5119 0005114 193.9428 166.1555 14.17163520 11173
SL-14 R/B               
1 17912U 87038B   26039.26217751  .00000668  00000+0  74722-4 0  9992
2 17912  82.5042 324.5227 0017698 261.5737  98.3473 14.85340160 74861
COSMOS 1844             
1 17973U 87041A   26039.47799180  .00000397  00000+0  23088-3 0  9994
2 17973  70.8980  95.7941 0028846  64.8287 295.5821 14.14540384999451
SL-14 R/B               
1 18153U 87055B   26039.37894691  .00000675  00000+0  74868-4 0  9994
2 18153  82.4996  16.6517 0022197 109.0329 251.3295 14.85592752 65588
COSMOS 1867             
1 18187U 87060A   26039.37881382  .00000002  00000+0  38382-4 0  9995
2 18187  65.0111  28.7868 0014100 276.4738  83.4741 14.31498233 15745
SL-14 R/B               
1 18749U 88001B   26039.50695161  .00000596  00000+0  66176-4 0  9998
2 18749  82.5106 222.8088 0017504 339.5454  20.5059 14.85492588 37693
