CCSDS_OMM_VERS = 2.0
CREATION_DATE  = 
ORIGINATOR     = 

OBJECT_NAME    = SL-14 R/B
OBJECT_ID      = 1986-046B
CENTER_NAME    = EARTH
REF_FRAME      = TEME
TIME_SYSTEM    = UTC
MEAN_ELEMENT_THEORY = SGP/SGP4

EPOCH          = 2026-02-08T05:43:02.460288
MEAN_MOTION    = 14.85561789
ECCENTRICITY   = .0022248
INCLINATION    = 82.4816
RA_OF_ASC_NODE = 108.0138
ARG_OF_PERICENTER = 328.6757
MEAN_ANOMALY   = 31.3132

EPHEMERIS_TYPE = 0
CLASSIFICATION_TYPE = U
NORAD_CAT_ID   = 16792
ELEMENT_SET_NO = 999
REV_AT_EPOCH   = 12203
BSTAR          = .59174E-4
MEAN_MOTION_DOT = .537E-5
MEAN_MOTION_DDOT = 0

CCSDS_OMM_VERS = 2.0
CREATION_DATE  = 
ORIGINATOR     = 

OBJECT_NAME    = SL-14 R/B
OBJECT_ID      = 1986-055B
CENTER_NAME    = EARTH
REF_FRAME      = TEME
TIME_SYSTEM    = UTC
MEAN_ELEMENT_THEORY = SGP/SGP4

EPOCH          = 2026-02-08T10:30:36.088416
MEAN_MOTION    = 14.85611869
ECCENTRICITY   = .0020318
INCLINATION    = 82.5234
RA_OF_ASC_NODE = 154.1594
ARG_OF_PERICENTER = 70.7030
MEAN_ANOMALY   = 356.2508

EPHEMERIS_TYPE = 0
CLASSIFICATION_TYPE = U
NORAD_CAT_ID   = 16882
ELEMENT_SET_NO = 999
REV_AT_EPOCH   = 11502
BSTAR          = .75703E-4
MEAN_MOTION_DOT = .682E-5
MEAN_MOTION_DDOT = 0

CCSDS_OMM_VERS = 2.0
CREATION_DATE  = 
ORIGINATOR     = 

OBJECT_NAME    = AJISAI (EGS)
OBJECT_ID      = 1986-061A
CENTER_NAME    = EARTH
REF_FRAME      = TEME
TIME_SYSTEM    = UTC
MEAN_ELEMENT_THEORY = SGP/SGP4

EPOCH          = 2026-02-08T11:49:36.007104
MEAN_MOTION    = 12.44515305
ECCENTRICITY   = .001124
INCLINATION    = 50.0072
RA_OF_ASC_NODE = 183.1276
ARG_OF_PERICENTER = 211.8017
MEAN_ANOMALY   = 257.9342

EPHEMERIS_TYPE = 0
CLASSIFICATION_TYPE = U
NORAD_CAT_ID   = 16908
ELEMENT_SET_NO = 999
REV_AT_EPOCH   = 46436
BSTAR          = .44786E-4
MEAN_MOTION_DOT = -.91E-6
MEAN_MOTION_DDOT = 0

CCSDS_OMM_VERS = 2.0
CREATION_DATE  = 
ORIGINATOR     = 

OBJECT_NAME    = COSMOS 1812
OBJECT_ID      = 1987-003A
CENTER_NAME    = EARTH
REF_FRAME      = TEME
TIME_SYSTEM    = UTC
MEAN_ELEMENT_THEORY = SGP/SGP4

EPOCH          = 2026-02-08T11:43:58.157184
MEAN_MOTION    = 15.94974206
ECCENTRICITY   = .0001126
INCLINATION    = 82.4779
RA_OF_ASC_NODE = 228.7371
ARG_OF_PERICENTER = 327.2819
MEAN_ANOMALY   = 32.8386

EPHEMERIS_TYPE = 0
CLASSIFICATION_TYPE = U
NORAD_CAT_ID   = 17295
ELEMENT_SET_NO = 999
REV_AT_EPOCH   = 13979
BSTAR          = .76034E-3
MEAN_MOTION_DOT = .292543E-2
MEAN_MOTION_DDOT = .31817E-4

CCSDS_OMM_VERS = 2.0
CREATION_DATE  = 
ORIGINATOR     = 

OBJECT_NAME    = SL-14 R/B
OBJECT_ID      = 1987-024B
CENTER_NAME    = EARTH
REF_FRAME      = TEME
TIME_SYSTEM    = UTC
MEAN_ELEMENT_THEORY = SGP/SGP4

EPOCH          = 2026-02-08T06:46:36.533856
MEAN_MOTION    = 14.86103830
ECCENTRICITY   = .0018223
INCLINATION    = 82.5292
RA_OF_ASC_NODE = 120.4026
ARG_OF_PERICENTER = 3.1420
MEAN_ANOMALY   = 356.9907

EPHEMERIS_TYPE = 0
CLASSIFICATION_TYPE = U
NORAD_CAT_ID   = 17567
ELEMENT_SET_NO = 999
REV_AT_EPOCH   = 8376
BSTAR          = .62697E-4
MEAN_MOTION_DOT = .575E-5
MEAN_MOTION_DDOT = 0

CCSDS_OMM_VERS = 2.0
CREATION_DATE  = 
ORIGINATOR     = 

OBJECT_NAME    = COSMOS 1833
OBJECT_ID      = 1987-027A
CENTER_NAME    = EARTH
REF_FRAME      = TEME
TIME_SYSTEM    = UTC
MEAN_ELEMENT_THEORY = SGP/SGP4

EPOCH          = 2026-02-08T09:53:02.713344
MEAN_MOTION    = 14.13056433
ECCENTRICITY   = .0024889
INCLINATION    = 70.9213
RA_OF_ASC_NODE = 27.5496
ARG_OF_PERICENTER = 253.7329
MEAN_ANOMALY   = 106.1054

EPHEMERIS_TYPE = 0
CLASSIFICATION_TYPE = U
NORAD_CAT_ID   = 17589
ELEMENT_SET_NO = 999
REV_AT_EPOCH   = 618
BSTAR          = .5493E-4
MEAN_MOTION_DOT = .55E-6
MEAN_MOTION_DDOT = 0

CCSDS_OMM_VERS = 2.0
CREATION_DATE  = 
ORIGINATOR     = 

OBJECT_NAME    = SL-16 R/B
OBJECT_ID      = 1987-027B
CENTER_NAME    = EARTH
REF_FRAME      = TEME
TIME_SYSTEM    = UTC
MEAN_ELEMENT_THEORY = SGP/SGP4

EPOCH          = 2026-02-08T06:12:17.384256
MEAN_MOTION    = 14.17163520
ECCENTRICITY   = .0005114
INCLINATION    = 71.0050
RA_OF_ASC_NODE = 338.5119
ARG_OF_PERICENTER = 193.9428
MEAN_ANOMALY   = 166.1555

EPHEMERIS_TYPE = 0
CLASSIFICATION_TYPE = U
NORAD_CAT_ID   = 17590
ELEMENT_SET_NO = 999
REV_AT_EPOCH   = 1117
BSTAR          = -.65451E-4
MEAN_MOTION_DOT = -.18E-5
MEAN_MOTION_DDOT = 0

CCSDS_OMM_VERS = 2.0
CREATION_DATE  = 
ORIGINATOR     = 

OBJECT_NAME    = SL-14 R/B
OBJECT_ID      = 1987-038B
CENTER_NAME    = EARTH
REF_FRAME      = TEME
TIME_SYSTEM    = UTC
MEAN_ELEMENT_THEORY = SGP/SGP4

EPOCH          = 2026-02-08T06:17:32.136864
MEAN_MOTION    = 14.85340160
ECCENTRICITY   = .0017698
INCLINATION    = 82.5042
RA_OF_ASC_NODE = 324.5227
ARG_OF_PERICENTER = 261.5737
MEAN_ANOMALY   = 98.3473

EPHEMERIS_TYPE = 0
CLASSIFICATION_TYPE = U
NORAD_CAT_ID   = 17912
ELEMENT_SET_NO = 999
REV_AT_EPOCH   = 7486
BSTAR          = .74722E-4
MEAN_MOTION_DOT = .668E-5
MEAN_MOTION_DDOT = 0

CCSDS_OMM_VERS = 2.0
CREATION_DATE  = 
ORIGINATOR     = 

OBJECT_NAME    = COSMOS 1844
OBJECT_ID      = 1987-041A
CENTER_NAME    = EARTH
REF_FRAME      = TEME
TIME_SYSTEM    = UTC
MEAN_ELEMENT_THEORY = SGP/SGP4

EPOCH          = 2026-02-08T11:28:18.491520
MEAN_MOTION    = 14.14540384
ECCENTRICITY   = .0028846
INCLINATION    = 70.8980
RA_OF_ASC_NODE = 95.7941
ARG_OF_PERICENTER = 64.8287
MEAN_ANOMALY   = 295.5821

EPHEMERIS_TYPE = 0
CLASSIFICATION_TYPE = U
NORAD_CAT_ID   = 17973
ELEMENT_SET_NO = 999
REV_AT_EPOCH   = 99945
BSTAR          = .23088E-3
MEAN_MOTION_DOT = .397E-5
MEAN_MOTION_DDOT = 0

CCSDS_OMM_VERS = 2.0
CREATION_DATE  = 
ORIGINATOR     = 

OBJECT_NAME    = SL-14 R/B
OBJECT_ID      = 1987-055B
CENTER_NAME    = EARTH
REF_FRAME      = TEME
TIME_SYSTEM    = UTC
MEAN_ELEMENT_THEORY = SGP/SGP4

EPOCH          = 2026-02-08T09:05:41.013024
MEAN_MOTION    = 14.85592752
ECCENTRICITY   = .0022197
INCLINATION    = 82.4996
RA_OF_ASC_NODE = 16.6517
ARG_OF_PERICENTER = 109.0329
MEAN_ANOMALY   = 251.3295

EPHEMERIS_TYPE = 0
CLASSIFICATION_TYPE = U
NORAD_CAT_ID   = 18153
ELEMENT_SET_NO = 999
REV_AT_EPOCH   = 6558
BSTAR          = .74868E-4
MEAN_MOTION_DOT = .675E-5
MEAN_MOTION_DDOT = 0

CCSDS_OMM_VERS = 2.0
CREATION_DATE  = 
ORIGINATOR     = 

OBJECT_NAME    = COSMOS 1867
OBJECT_ID      = 1987-060A
CENTER_NAME    = EARTH
REF_FRAME      = TEME
TIME_SYSTEM    = UTC
MEAN_ELEMENT_THEORY = SGP/SGP4

EPOCH          = 2026-02-08T09:05:29.514048
MEAN_MOTION    = 14.31498233
ECCENTRICITY   = .00141
INCLINATION    = 65.0111
RA_OF_ASC_NODE = 28.7868
ARG_OF_PERICENTER = 276.4738
MEAN_ANOMALY   = 83.4741

EPHEMERIS_TYPE = 0
CLASSIFICATION_TYPE = U
NORAD_CAT_ID   = 18187
ELEMENT_SET_NO = 999
REV_AT_EPOCH   = 1574
BSTAR          = .38382E-4
MEAN_MOTION_DOT = .2E-7
MEAN_MOTION_DDOT = 0

CCSDS_OMM_VERS = 2.0
CREATION_DATE  = 
ORIGINATOR     = 

OBJECT_NAME    = SL-14 R/B
OBJECT_ID      = 1988-001B
CENTER_NAME    = EARTH
REF_FRAME      = TEME
TIME_SYSTEM    = UTC
MEAN_ELEMENT_THEORY = SGP/SGP4

EPOCH          = 2026-02-08T12:10:00.619104
MEAN_MOTION    = 14.85492588
ECCENTRICITY   = .0017504
INCLINATION    = 82.5106
RA_OF_ASC_NODE = 222.8088
ARG_OF_PERICENTER = 339.5454
MEAN_ANOMALY   = 20.5059

EPHEMERIS_TYPE = 0
CLASSIFICATION_TYPE = U
NORAD_CAT_ID   = 18749
ELEMENT_SET_NO = 999
REV_AT_EPOCH   = 3769
BSTAR          = .66176E-4
MEAN_MOTION_DOT = .596E-5
MEAN_MOTION_DDOT = 0

